TOMORROW-S1             
1 60479U 24149M   26068.72470524  .00008620  00000+0  28856-3 0  9996
2 60479  97.3791 149.6044 0001819 207.2040 152.9106 15.31198362 86867
STARLINK-36412          
1 67518U 26012AB  26068.02545720  .00029885  00000+0  10902-2 0  9990
2 67518  43.0014 317.8493 0007043 233.6209 126.3993 15.27589895  7666
