[{"OBJECT_NAME":"TOMORROW-S1","OBJECT_ID":"2024-149M","EPOCH":"2026-03-09T17:23:34.533600","MEAN_MOTION":15.31198363,"ECCENTRICITY":0.00018188,"INCLINATION":97.3791,"RA_OF_ASC_NODE":149.6044,"ARG_OF_PERICENTER":207.204,"MEAN_ANOMALY":152.9106,"EPHEMERIS_TYPE":0,"CLASSIFICATION_TYPE":"U","NORAD_CAT_ID":60479,"ELEMENT_SET_NO":999,"REV_AT_EPOCH":8686,"BSTAR":0.0002885603,"MEAN_MOTION_DOT":8.62e-5,"MEAN_MOTION_DDOT":0},{"OBJECT_NAME":"STARLINK-36412","OBJECT_ID":"2026-012AB","EPOCH":"2026-03-09T00:36:39.502080","MEAN_MOTION":15.27589895,"ECCENTRICITY":0.00070431,"INCLINATION":43.0014,"RA_OF_ASC_NODE":317.8493,"ARG_OF_PERICENTER":233.6209,"MEAN_ANOMALY":126.3993,"EPHEMERIS_TYPE":0,"CLASSIFICATION_TYPE":"U","NORAD_CAT_ID":67518,"ELEMENT_SET_NO":999,"REV_AT_EPOCH":766,"BSTAR":0.0010901534,"MEAN_MOTION_DOT":0.00029885,"MEAN_MOTION_DDOT":0}]
